[{"OBJECT_NAME":"ZIYUAN 1-02C (ZY 1-02C)","OBJECT_ID":"2011-079A","EPOCH":"2026-03-10T00:21:45.280224","MEAN_MOTION":14.38123973,"ECCENTRICITY":0.00053834,"INCLINATION":98.4167,"RA_OF_ASC_NODE":138.3624,"ARG_OF_PERICENTER":238.9134,"MEAN_ANOMALY":241.9717,"EPHEMERIS_TYPE":0,"CLASSIFICATION_TYPE":"U","NORAD_CAT_ID":38038,"ELEMENT_SET_NO":999,"REV_AT_EPOCH":74495,"BSTAR":0.00018700518,"MEAN_MOTION_DOT":5.24e-6,"MEAN_MOTION_DDOT":0},{"OBJECT_NAME":"COSMOS 1867 COOLANT","OBJECT_ID":"1987-060L","EPOCH":"2026-03-09T13:58:08.634432","MEAN_MOTION":14.34640862,"ECCENTRICITY":0.0015744,"INCLINATION":65.0091,"RA_OF_ASC_NODE":283.0861,"ARG_OF_PERICENTER":280.8958,"MEAN_ANOMALY":79.0356,"EPHEMERIS_TYPE":0,"CLASSIFICATION_TYPE":"U","NORAD_CAT_ID":39643,"ELEMENT_SET_NO":999,"REV_AT_EPOCH":62348,"BSTAR":0.00018972,"MEAN_MOTION_DOT":4.37e-6,"MEAN_MOTION_DDOT":0}]
